*******************************************************************************
 Revised: Dec 02, 2013             Metis  / (Jupiter)                       516

 SATELLITE PHYSICAL PROPERTIES:
  Radius (km)             =  20 +- 10       Density (g cm^-3)   =              
  Mass (10^20 kg )        =                 Geometric Albedo    =   0.05-0.10
                                            V(1,0)              = +10.8 

 SATELLITE ORBITAL DATA:
  Semi-major axis, a (km) = 127.96 (10^3)   Orbital period      = 0.294780 d
  Eccentricity, e         =  < 0.004        Rotational period   = Synchronous 
  Inclination, i  (deg)   =  ~ 0 
******************************************************************************
 
 
*******************************************************************************
Ephemeris / WWW_USER Fri Jun 19 18:20:59 2020 Pasadena, USA      / Horizons
*******************************************************************************
Target body name: Metis (516)                     {source: jup310}
Center body name: Solar System Barycenter (0)     {source: DE431mx}
Center-site name: BODY CENTER
*******************************************************************************
Start time      : A.D. 1969-Jun-28 00:00:00.0000 TDB
Stop  time      : A.D. 2071-May-04 00:00:00.0000 TDB
Step-size       : 7200 minutes
*******************************************************************************
Center geodetic : 0.00000000,0.00000000,0.0000000 {E-lon(deg),Lat(deg),Alt(km)}
Center cylindric: 0.00000000,0.00000000,0.0000000 {E-lon(deg),Dxy(km),Dz(km)}
Center radii    : (undefined)                                                  
Output units    : AU-D
Output type     : GEOMETRIC cartesian states
Output format   : 2 (position and velocity)
Reference frame : Ecliptic of J2000.0
*******************************************************************************
            JDTDB,            Calendar Date (TDB),        delta-T,                      X,                      Y,                      Z,                     VX,                     VY,                     VZ,
******************************************************************************************************************************************************************************************************************
$$SOE
2459300.500000000, A.D. 2021-Mar-27 00:00:00.0000,      69.185658,  3.516485338023004E+00, -3.636994666941394E+00, -6.355018409014924E-02,  3.744041486849016E-03,  2.375514821355752E-02,  4.882223844367095E-04,
2459305.500000000, A.D. 2021-Apr-01 00:00:00.0000,      69.185671,  3.543043699338493E+00, -3.609091856403759E+00, -6.426844736015566E-02,  8.054512733133404E-03,  2.364572697163337E-02,  5.462857404422870E-04,
2459310.500000000, A.D. 2021-Apr-06 00:00:00.0000,      69.185672,  3.569351913708473E+00, -3.580972823076116E+00, -6.498340120424524E-02,  1.220129740974678E-02,  2.251869509800893E-02,  5.647665398535068E-04,
2459315.500000000, A.D. 2021-Apr-11 00:00:00.0000,      69.185663,  3.595410533712333E+00, -3.552631118150554E+00, -6.569469741444656E-02,  1.595901705264869E-02,  2.043715664486036E-02,  5.430285896210582E-04,
2459320.500000000, A.D. 2021-Apr-16 00:00:00.0000,      69.185641,  3.621224383766148E+00, -3.524061747422393E+00, -6.640196981634008E-02,  1.911488496077687E-02,  1.750883281243080E-02,  4.823201730088862E-04,
2459325.500000000, A.D. 2021-Apr-21 00:00:00.0000,      69.185607,  3.646799984370438E+00, -3.495251467109322E+00, -6.710452329812128E-02,  2.146987894763015E-02,  1.389793597123856E-02,  3.860755261189975E-04,
2459330.500000000, A.D. 2021-Apr-26 00:00:00.0000,      69.185559,  3.672144729816903E+00, -3.466196080726724E+00, -6.780196459914735E-02,  2.287883130821360E-02,  9.822650001993028E-03,  2.603192749112583E-04,
2459335.500000000, A.D. 2021-May-01 00:00:00.0000,      69.185500,  3.697269679481622E+00, -3.436898110733814E+00, -6.849406813292284E-02,  2.326779102490608E-02,  5.531210993405315E-03,  1.129483920331154E-04,
2459340.500000000, A.D. 2021-May-06 00:00:00.0000,      69.185431,  3.722184110347389E+00, -3.407353968463556E+00, -6.918043766728789E-02,  2.262305246248673E-02,  1.267111320923847E-03, -4.769410899122681E-05,
2459345.500000000, A.D. 2021-May-11 00:00:00.0000,      69.185353,  3.746896993564820E+00, -3.377564558247045E+00, -6.986083848678822E-02,  2.098116720425742E-02, -2.736132765088176E-03, -2.130646556211025E-04,
2459350.500000000, A.D. 2021-May-16 00:00:00.0000,      69.185265,  3.771417546456034E+00, -3.347539870804386E+00, -7.053535731364402E-02,  1.842311278218325E-02, -6.253893071193939E-03, -3.744365392131584E-04,
2459355.500000000, A.D. 2021-May-21 00:00:00.0000,      69.185167,  3.795753953278608E+00, -3.317288342650059E+00, -7.120407087124764E-02,  1.508291930506966E-02, -9.075881400147576E-03, -5.228071783320800E-04,
2459360.500000000, A.D. 2021-May-26 00:00:00.0000,      69.185060,  3.819912869222426E+00, -3.286815684432601E+00, -7.186698084127342E-02,  1.115069812617584E-02, -1.102432237730069E-02, -6.493775225628066E-04,
2459365.500000000, A.D. 2021-May-31 00:00:00.0000,      69.184944,  3.843897084477778E+00, -3.256137765221802E+00, -7.252451431463060E-02,  6.864173027957433E-03, -1.198674223877421E-02, -7.467822420136468E-04,
2459370.500000000, A.D. 2021-Jun-05 00:00:00.0000,      69.184824,  3.867708702276088E+00, -3.225270855726346E+00, -7.317712004197771E-02,  2.472485743393048E-03, -1.191889436696665E-02, -8.096776058771825E-04,
2459375.500000000, A.D. 2021-Jun-10 00:00:00.0000,      69.184699,  3.891345916864748E+00, -3.194221548783662E+00, -7.382496203919404E-02, -1.791382796441975E-03, -1.083158465660904E-02, -8.347161817143736E-04,
2459380.500000000, A.D. 2021-Jun-15 00:00:00.0000,      69.184569,  3.914803692895351E+00, -3.163003478029272E+00, -7.446848871794963E-02, -5.696957528103532E-03, -8.777041660849262E-03, -8.199073983608236E-04,
2459385.500000000, A.D. 2021-Jun-20 00:00:00.0000,      69.184434,  3.938076352844224E+00, -3.131633108852574E+00, -7.510823321563054E-02, -9.018223180020386E-03, -5.855745648927056E-03, -7.650658621173676E-04,
2459390.500000000, A.D. 2021-Jun-25 00:00:00.0000,      69.184294,  3.961153982746051E+00, -3.100117650094000E+00, -7.574447305939665E-02, -1.155608068753881E-02, -2.233055254540601E-03, -6.728344506094184E-04,
2459395.500000000, A.D. 2021-Jun-30 00:00:00.0000,      69.184152,  3.984024883830279E+00, -3.068463564206003E+00, -7.637746468005793E-02, -1.316277832858153E-02,  1.875101663296980E-03, -5.485953683282465E-04,
2459400.500000000, A.D. 2021-Jul-05 00:00:00.0000,      69.184011,  4.006675964883872E+00, -3.036681164731144E+00, -7.700761592883083E-02, -1.375753344957596E-02,  6.225763008686491E-03, -3.999612251066738E-04,
2459405.500000000, A.D. 2021-Jul-10 00:00:00.0000,      69.183871,  4.029094964526654E+00, -3.004773578044788E+00, -7.763508168442616E-02, -1.332058178265813E-02,  1.057739860886319E-02, -2.356016492259666E-04,
2459410.500000000, A.D. 2021-Jul-15 00:00:00.0000,      69.183731,  4.051269798591013E+00, -2.972735774659805E+00, -7.825972646812564E-02, -1.188201292282784E-02,  1.469868921222957E-02, -6.470110901237339E-05,
2459415.500000000, A.D. 2021-Jul-20 00:00:00.0000,      69.183593,  4.073187172179984E+00, -2.940569582993914E+00, -7.888169021511160E-02, -9.510806101668826E-03,  1.835923073940257E-02,  1.029881838650983E-04,
2459420.500000000, A.D. 2021-Jul-25 00:00:00.0000,      69.183456,  4.094836857507643E+00, -2.908273204094928E+00, -7.950094109168111E-02, -6.335098085263471E-03,  2.134058499874300E-02,  2.573630941073812E-04,
2459425.500000000, A.D. 2021-Jul-30 00:00:00.0000,      69.183323,  4.116208706959554E+00, -2.875833387397154E+00, -8.011706013639047E-02, -2.551530967982473E-03,  2.346204777962699E-02,  3.888578233676570E-04,
2459430.500000000, A.D. 2021-Aug-04 00:00:00.0000,      69.183196,  4.137294879547722E+00, -2.843242599865043E+00, -8.072979136010958E-02,  1.609280860412985E-03,  2.460938493827374E-02,  4.900697082167541E-04,
2459435.500000000, A.D. 2021-Aug-09 00:00:00.0000,      69.183076,  4.158091680398479E+00, -2.810495537253106E+00, -8.133888416953429E-02,  5.907980562730649E-03,  2.473340005604558E-02,  5.560017156600592E-04,
2459440.500000000, A.D. 2021-Aug-14 00:00:00.0000,      69.182962,  4.178597482139454E+00, -2.777579563408215E+00, -8.194380962438913E-02,  1.010773213199961E-02,  2.383210790458254E-02,  5.835664717713163E-04,
2459445.500000000, A.D. 2021-Aug-19 00:00:00.0000,      69.182854,  4.198813603875878E+00, -2.744483178799753E+00, -8.254400916193165E-02,  1.397369241819874E-02,  2.195051333988106E-02,  5.714627432416816E-04,
2459450.500000000, A.D. 2021-Aug-24 00:00:00.0000,      69.182753,  4.218742754535747E+00, -2.711202524477759E+00, -8.313916552996181E-02,  1.727772806460449E-02,  1.918505728646524E-02,  5.202333749942473E-04,
2459455.500000000, A.D. 2021-Aug-29 00:00:00.0000,      69.182662,  4.238392121640533E+00, -2.677730066612164E+00, -8.372876214753247E-02,  1.981571796308091E-02,  1.569745525583178E-02,  4.329416568436980E-04,
2459460.500000000, A.D. 2021-Sep-03 00:00:00.0000,      69.182581,  4.257770326082921E+00, -2.644054680828204E+00, -8.431213130329128E-02,  2.143322057158149E-02,  1.170292152434550E-02,  3.150439909541463E-04,
2459465.500000000, A.D. 2021-Sep-08 00:00:00.0000,      69.182512,  4.276885771884612E+00, -2.610177944091488E+00, -8.488906254340269E-02,  2.205000117288551E-02,  7.437606905236775E-03,  1.735972915089229E-04,
2459470.500000000, A.D. 2021-Sep-13 00:00:00.0000,      69.182453,  4.295749514344617E+00, -2.576102543150286E+00, -8.545934463808801E-02,  2.163945200379839E-02,  3.138294272172291E-03,  1.626055256979388E-05,
2459475.500000000, A.D. 2021-Sep-18 00:00:00.0000,      69.182404,  4.314371055045967E+00, -2.541825759401019E+00, -8.602262927589652E-02,  2.021341203096512E-02, -9.613890175511271E-04, -1.489329577399339E-04,
